OBJECT_NAME,OBJECT_ID,EPOCH,MEAN_MOTION,ECCENTRICITY,INCLINATION,RA_OF_ASC_NODE,ARG_OF_PERICENTER,MEAN_ANOMALY,EPHEMERIS_TYPE,CLASSIFICATION_TYPE,NORAD_CAT_ID,ELEMENT_SET_NO,REV_AT_EPOCH,BSTAR,MEAN_MOTION_DOT,MEAN_MOTION_DDOT
OSCAR 7 (AO-7),1974-089B,2026-07-19T19:23:46.848768,12.53698625,.0012633,101.9907,214.3949,69.8401,117.5763,0,U,7530,999,36460,-.21923E-4,-.5E-6,0
PHASE 3B (AO-10),1983-058B,2026-07-17T23:01:24.898944,2.05871393,.60006144,25.9392,214.4954,124.1231,307.7423,0,U,14129,999,29612,0,-.201E-5,0
UOSAT 2 (UO-11),1984-021B,2026-07-19T20:10:57.813024,14.90855208,.0009206,97.8080,166.0566,78.5589,281.6662,0,U,14781,999,26199,.75341E-4,.686E-5,0
LUSAT (LO-19),1990-005G,2026-07-19T11:38:04.865856,14.34131448,.00126342,98.8846,223.1792,109.9055,250.3491,0,U,20442,999,90702,.238297E-4,.2E-6,0
EYESAT A (AO-27),1993-061C,2026-07-19T17:22:44.698080,14.30949793,.0008503,98.6864,268.1231,13.1494,346.9909,0,U,22825,999,71165,.2592E-4,.23E-6,0
ITAMSAT (IO-26),1993-061D,2026-07-19T18:19:46.303968,14.31377486,.0008676,98.6813,268.0835,355.7506,4.3602,0,U,22826,999,71197,.23378E-4,.17E-6,0
RADIO ROSTO (RS15),1994-085A,2026-07-19T18:05:07.958112,11.27583631,.0157094,64.8146,250.5485,357.8675,2.1563,0,U,23439,999,29957,-.22099E-3,-.5E-6,0
JAS-2 (FO-29),1996-046B,2026-07-19T20:11:45.757248,13.53275815,.0350138,98.5218,45.2372,11.8992,349.0160,0,U,24278,999,47758,-.11314E-4,-.47E-6,0
TECHSAT 1B (GO-32),1998-043D,2026-07-19T10:42:44.197632,14.24433824,.00022894,99.0088,194.0215,108.4800,251.6627,0,U,25397,999,45592,.20729446E-4,.1E-7,0
ISS (ZARYA),1998-067A,2026-07-19T19:56:18.545280,15.49054454,.0006793,51.6315,138.5480,315.6343,44.4100,0,U,25544,999,57681,.90718E-4,.4561E-4,0
PCSAT (NO-44),2001-043C,2026-07-19T06:54:49.665312,14.31965883,.00058705,67.0498,161.2434,266.8644,93.1786,0,U,26931,999,29504,.40156995E-4,.25E-6,0
SAUDISAT 1C (SO-50),2002-058C,2026-07-19T19:00:15.820128,14.83103200,.0074388,64.5521,28.1016,256.4358,102.8454,0,U,27607,999,26929,.59404E-4,.35E-5,0
CUTE-1 (CO-55),2003-031E,2026-07-19T20:13:35.808384,14.24353232,.0010867,98.6745,208.9919,90.7577,269.4847,0,U,27844,999,19632,.73652E-4,.127E-5,0
CUBESAT XI-IV (CO-57),2003-031J,2026-07-19T11:54:35.074656,14.23635874,.00106546,98.6776,208.3362,108.0973,252.1367,0,U,27848,999,19597,.61251528E-4,.96E-6,0
MOZHAETS 4 (RS22),2003-042A,2026-07-19T21:20:23.359200,14.73518243,.0011592,98.3479,26.1739,158.5469,337.0728,0,U,27939,999,22036,.59356E-4,.332E-5,0
CUBESAT XI-V,2005-043F,2026-07-19T09:42:23.487264,14.72708170,.00153474,98.3022,356.7103,102.9295,257.3627,0,U,28895,999,10649,.10669037E-3,.628E-5,0
CUTE-1.7+APD II (CO-65),2008-021C,2026-07-19T19:03:44.898624,15.09722537,.0006834,97.8299,182.9018,280.3432,79.7026,0,U,32785,999,99011,.122E-3,.19E-4,0
SEEDS II (CO-66),2008-021J,2026-07-19T10:33:17.970048,15.33752550,.00035468,97.7533,199.9049,147.5625,212.5835,0,U,32791,999,99223,.29357782E-3,.95E-4,0
YUBILEINY (RS30),2008-025A,2026-07-19T20:28:22.852128,12.43181070,.0018736,82.5071,335.1196,238.2115,121.7140,0,U,32953,999,82375,.72017E-3,.11E-5,0
KKS-1 (KISEKI),2009-002H,2026-07-19T20:12:22.223232,14.83195356,.0007805,98.1171,123.8014,173.7206,186.4106,0,U,33499,999,94103,.81624E-4,.611E-5,0
SWISSCUBE,2009-051B,2026-07-19T17:37:58.034208,14.62535357,.0008016,98.4003,109.1864,106.9807,253.2273,0,U,35932,999,89391,.92894E-4,.422E-5,0
BEESAT-1,2009-051C,2026-07-19T06:46:06.075264,14.61765433,.00063308,98.3929,108.2939,119.2853,240.8981,0,U,35933,999,89387,.83262274E-4,.366E-5,0
ITUPSAT1,2009-051E,2026-07-19T17:05:27.091104,14.60482308,.0008343,98.4013,107.8874,130.5838,229.6088,0,U,35935,999,89348,.75448E-4,.317E-5,0
XIWANG-1 (HOPE-1),2009-072B,2026-07-19T20:20:24.121824,13.16440862,.0007688,100.4043,154.1608,154.3835,205.7660,0,U,36122,999,79730,.9892E-3,.333E-5,0
O/OREOS (USA 219),2010-062C,2026-07-19T19:24:51.933024,14.93861297,.00143,71.9702,6.4353,356.1622,3.9436,0,U,37224,999,12151,.9825E-4,.982E-5,0
JUGNU,2011-058B,2026-07-19T19:58:16.235904,14.13784279,.0018645,19.9602,110.0906,77.3492,337.4699,0,U,37839,999,76365,.45778E-4,.355E-5,0
SRMSAT,2011-058D,2026-07-19T11:20:50.853120,14.11581587,.00116223,19.9703,224.0535,198.3293,313.0958,0,U,37841,999,76238,.31519595E-4,.323E-5,0
STRAND-1,2013-009E,2026-07-19T11:59:22.083360,14.37180292,.00096104,98.3939,19.9412,129.5054,230.6984,0,U,39090,999,70170,.50736694E-4,.108E-5,0
ZACUBE-1 (TSHEPISOSAT),2013-066B,2026-07-19T19:12:07.331040,15.01340631,.0044073,97.8002,163.2958,140.4395,220.0060,0,U,39417,999,68562,.98515E-4,.123E-4,0
GOMX-1,2013-066Q,2026-07-19T19:13:47.771040,14.69548974,.012784,97.6464,39.2056,333.3842,26.0838,0,U,39430,999,67470,.10889E-3,.679E-5,0
