OSCAR 7 (AO-7)          
1 07530U 74089B   26200.80818112 -.00000050  00000+0 -21923-4 0  9999
2 07530 101.9907 214.3949 0012633  69.8401 117.5763 12.53698625364605
PHASE 3B (AO-10)        
1 14129U 83058B   26198.95931596 -.00000201  00000+0  00000+0 0  9996
2 14129  25.9392 214.4954 6000614 124.1231 307.7423  2.05871393296123
UOSAT 2 (UO-11)         
1 14781U 84021B   26200.84094691  .00000686  00000+0  75341-4 0  9990
2 14781  97.8080 166.0566 0009206  78.5589 281.6662 14.90855208261994
LUSAT (LO-19)           
1 20442U 90005G   26200.48477854  .00000020  00000+0  23830-4 0  9994
2 20442  98.8846 223.1792 0012634 109.9055 250.3491 14.34131448907023
EYESAT A (AO-27)        
1 22825U 93061C   26200.72412845  .00000023  00000+0  25920-4 0  9997
2 22825  98.6864 268.1231 0008503  13.1494 346.9909 14.30949793711652
ITAMSAT (IO-26)         
1 22826U 93061D   26200.76373037  .00000017  00000+0  23378-4 0  9999
2 22826  98.6813 268.0835 0008676 355.7506   4.3602 14.31377486711971
RADIO ROSTO (RS15)      
1 23439U 94085A   26200.75356433 -.00000050  00000+0 -22099-3 0  9994
2 23439  64.8146 250.5485 0157094 357.8675   2.1563 11.27583631299574
JAS-2 (FO-29)           
1 24278U 96046B   26200.84150182 -.00000047  00000+0 -11314-4 0  9993
2 24278  98.5218  45.2372 0350138  11.8992 349.0160 13.53275815477585
TECHSAT 1B (GO-32)      
1 25397U 98043D   26200.44634488  .00000001  00000+0  20729-4 0  9995
2 25397  99.0088 194.0215 0002289 108.4800 251.6627 14.24433824455925
ISS (ZARYA)             
1 25544U 98067A   26200.83077020  .00004561  00000+0  90718-4 0  9991
2 25544  51.6315 138.5480 0006793 315.6343  44.4100 15.49054454576813
PCSAT (NO-44)           
1 26931U 01043C   26200.28807483  .00000025  00000+0  40157-4 0  9996
2 26931  67.0498 161.2434 0005870 266.8644  93.1786 14.31965883295046
SAUDISAT 1C (SO-50)     
1 27607U 02058C   26200.79184977  .00000350  00000+0  59404-4 0  9992
2 27607  64.5521  28.1016 0074388 256.4358 102.8454 14.83103200269292
CUTE-1 (CO-55)          
1 27844U 03031E   26200.84277556  .00000127  00000+0  73652-4 0  9992
2 27844  98.6745 208.9919 0010867  90.7577 269.4847 14.24353232196321
CUBESAT XI-IV (CO-57)   
1 27848U 03031J   26200.49623929  .00000096  00000+0  61252-4 0  9994
2 27848  98.6776 208.3362 0010654 108.0973 252.1367 14.23635874195972
MOZHAETS 4 (RS22)       
1 27939U 03042A   26200.88915925  .00000332  00000+0  59356-4 0  9995
2 27939  98.3479  26.1739 0011592 158.5469 337.0728 14.73518243220367
CUBESAT XI-V            
1 28895U 05043F   26200.40443851  .00000628  00000+0  10669-3 0  9993
2 28895  98.3022 356.7103 0015347 102.9295 257.3627 14.72708170106490
CUTE-1.7+APD II (CO-65) 
1 32785U 08021C   26200.79426966  .00001900  00000+0  12200-3 0  9992
2 32785  97.8299 182.9018 0006834 280.3432  79.7026 15.09722537990115
SEEDS II (CO-66)        
1 32791U 08021J   26200.43979132  .00009500  00000+0  29358-3 0  9994
2 32791  97.7533 199.9049 0003546 147.5625 212.5835 15.33752550992234
YUBILEINY (RS30)        
1 32953U 08025A   26200.85304227  .00000110  00000+0  72017-3 0  9999
2 32953  82.5071 335.1196 0018736 238.2115 121.7140 12.43181070823750
KKS-1 (KISEKI)          
1 33499U 09002H   26200.84192388  .00000611  00000+0  81624-4 0  9994
2 33499  98.1171 123.8014 0007805 173.7206 186.4106 14.83195356941030
SWISSCUBE               
1 35932U 09051B   26200.73469947  .00000422  00000+0  92894-4 0  9999
2 35932  98.4003 109.1864 0008016 106.9807 253.2273 14.62535357893918
BEESAT-1                
1 35933U 09051C   26200.28201476  .00000366  00000+0  83262-4 0  9997
2 35933  98.3929 108.2939 0006330 119.2853 240.8981 14.61765433893875
ITUPSAT1                
1 35935U 09051E   26200.71211911  .00000317  00000+0  75448-4 0  9995
2 35935  98.4013 107.8874 0008343 130.5838 229.6088 14.60482308893486
XIWANG-1 (HOPE-1)       
1 36122U 09072B   26200.84750141  .00000333  00000+0  98920-3 0  9991
2 36122 100.4043 154.1608 0007688 154.3835 205.7660 13.16440862797308
O/OREOS (USA 219)       
1 37224U 10062C   26200.80893441  .00000982  00000+0  98250-4 0  9990
2 37224  71.9702   6.4353 0014300 356.1622   3.9436 14.93861297121515
JUGNU                   
1 37839U 11058B   26200.83213236  .00000355  00000+0  45778-4 0  9990
2 37839  19.9602 110.0906 0018645  77.3492 337.4699 14.13784279763656
SRMSAT                  
1 37841U 11058D   26200.47281080  .00000323  00000+0  31520-4 0  9990
2 37841  19.9703 224.0535 0011622 198.3293 313.0958 14.11581587762388
STRAND-1                
1 39090U 13009E   26200.49956115  .00000108  00000+0  50737-4 0  9998
2 39090  98.3939  19.9412 0009610 129.5054 230.6984 14.37180292701706
ZACUBE-1 (TSHEPISOSAT)  
1 39417U 13066B   26200.80008485  .00001230  00000+0  98515-4 0  9990
2 39417  97.8002 163.2958 0044073 140.4395 220.0060 15.01340631685621
GOMX-1                  
1 39430U 13066Q   26200.80124735  .00000679  00000+0  10889-3 0  9995
2 39430  97.6464  39.2056 0127840 333.3842  26.0838 14.69548974674708
